start=new Date('2023-06-25T00:00:00.000Z').valueOf();
sats=[{"OBJECT_NAME":"STARLINK-2364","SEMIMAJOR_AXIS":"6925.346","APOAPSIS":"547.821","COUNTRY_CODE":"US","ELEMENT_SET_NO":"999","PERIOD":"95.592","CENTER_NAME":"EARTH","NORAD_CAT_ID":"47904","SITE":"AFETR","EPHEMERIS_TYPE":"0","GP_ID":"234526644","OBJECT_ID":"2021-021AW","REV_AT_EPOCH":"12678","LAUNCH_DATE":"2021-03-14","MEAN_ANOMALY":"282.5911","CLASSIFICATION_TYPE":"U","MEAN_MOTION_DOT":"0.00017196","RA_OF_ASC_NODE":"21.8445","TLE_LINE2":"2 47904  53.0554  21.8445 0000881  77.5177 282.5911 15.06400932126785","MEAN_MOTION":"15.06400932","MEAN_ELEMENT_THEORY":"SGP4","FILE":"3941696","PERIAPSIS":"546.601","EPOCH":"2023-06-24T14:13:39.963360","OBJECT_TYPE":"PAYLOAD","ARG_OF_PERICENTER":"77.5177","RCS_SIZE":"LARGE","TLE_LINE1":"1 47904U 21021AW  23175.59282365  .00017196  00000-0  11705-2 0  9998","MEAN_MOTION_DDOT":"0.0000000000000","ECCENTRICITY":"0.00008810","BSTAR":"0.00117050000000","INCLINATION":"53.0554","TIME_SYSTEM":"UTC","DECAY_DATE":null,"REF_FRAME":"TEME"},{"RCS_SIZE":"LARGE","ARG_OF_PERICENTER":"85.1339","OBJECT_TYPE":"PAYLOAD","FILE":"3940283","MEAN_ELEMENT_THEORY":"SGP4","PERIAPSIS":"546.552","EPOCH":"2023-06-22T23:54:03.482496","MEAN_MOTION":"15.06385311","TLE_LINE2":"2 47905  53.0544  29.0046 0001020  85.1339 274.9766 15.06385311126543","RA_OF_ASC_NODE":"29.0046","MEAN_MOTION_DOT":"0.00027812","CLASSIFICATION_TYPE":"U","REF_FRAME":"TEME","TIME_SYSTEM":"UTC","DECAY_DATE":null,"BSTAR":"0.00187940000000","INCLINATION":"53.0544","ECCENTRICITY":"0.00010200","TLE_LINE1":"1 47905U 21021AX  23173.99587364  .00027812  00000-0  18794-2 0  9999","MEAN_MOTION_DDOT":"0.0000000000000","PERIOD":"95.593","ELEMENT_SET_NO":"999","COUNTRY_CODE":"US","APOAPSIS":"547.965","SEMIMAJOR_AXIS":"6925.394","OBJECT_NAME":"STARLINK-2365","MEAN_ANOMALY":"274.9766","REV_AT_EPOCH":"12654","LAUNCH_DATE":"2021-03-14","OBJECT_ID":"2021-021AX","GP_ID":"234492991","EPHEMERIS_TYPE":"0","CENTER_NAME":"EARTH","NORAD_CAT_ID":"47905","SITE":"AFETR"},{"OBJECT_TYPE":"PAYLOAD","MEAN_ELEMENT_THEORY":"SGP4","FILE":"3941679","EPOCH":"2023-06-24T15:04:06.385152","PERIAPSIS":"255.573","RCS_SIZE":"LARGE","ARG_OF_PERICENTER":"256.9733","MEAN_MOTION_DOT":"0.03034082","CLASSIFICATION_TYPE":"U","MEAN_MOTION":"16.03628403","RA_OF_ASC_NODE":"31.0708","TLE_LINE2":"2 47906  52.9769  31.0708 0013261 256.9733 194.9529 16.03628403131651","REF_FRAME":"TEME","ECCENTRICITY":"0.00132610","TLE_LINE1":"1 47906U 21021AY  23175.62785168  .03034082  12960-1  55855-2 0  9992","MEAN_MOTION_DDOT":"0.0129600000000","TIME_SYSTEM":"UTC","DECAY_DATE":null,"INCLINATION":"52.9769","BSTAR":"0.00558550000000","COUNTRY_CODE":"US","APOAPSIS":"273.191","PERIOD":"89.796","ELEMENT_SET_NO":"999","OBJECT_NAME":"STARLINK-2366","SEMIMAJOR_AXIS":"6642.517","REV_AT_EPOCH":"13165","LAUNCH_DATE":"2021-03-14","OBJECT_ID":"2021-021AY","MEAN_ANOMALY":"194.9529","EPHEMERIS_TYPE":"0","CENTER_NAME":"EARTH","NORAD_CAT_ID":"47906","SITE":"AFETR","GP_ID":"234526143"},{"PERIOD":"95.593","ELEMENT_SET_NO":"999","COUNTRY_CODE":"US","APOAPSIS":"548.076","SEMIMAJOR_AXIS":"6925.373","OBJECT_NAME":"STARLINK-2367","MEAN_ANOMALY":"279.6723","LAUNCH_DATE":"2021-03-14","REV_AT_EPOCH":"12650","OBJECT_ID":"2021-021AZ","GP_ID":"234526150","EPHEMERIS_TYPE":"0","CENTER_NAME":"EARTH","NORAD_CAT_ID":"47907","SITE":"AFETR","RCS_SIZE":"LARGE","ARG_OF_PERICENTER":"80.4402","OBJECT_TYPE":"PAYLOAD","FILE":"3941684","MEAN_ELEMENT_THEORY":"SGP4","EPOCH":"2023-06-24T15:57:09.780192","PERIAPSIS":"546.401","MEAN_MOTION":"15.06391908","RA_OF_ASC_NODE":"41.5290","TLE_LINE2":"2 47907  53.0542  41.5290 0001209  80.4402 279.6723 15.06391908126501","MEAN_MOTION_DOT":"-0.00006892","CLASSIFICATION_TYPE":"U","REF_FRAME":"TEME","TIME_SYSTEM":"UTC","DECAY_DATE":null,"BSTAR":"-0.00044436000000","INCLINATION":"53.0542","ECCENTRICITY":"0.00012090","TLE_LINE1":"1 47907U 21021AZ  23175.66469653 -.00006892  00000-0 -44436-3 0  9997","MEAN_MOTION_DDOT":"0.0000000000000"},{"DECAY_DATE":null,"TIME_SYSTEM":"UTC","INCLINATION":"53.0546","BSTAR":"0.00028953000000","ECCENTRICITY":"0.00012550","TLE_LINE1":"1 47908U 21021BA  23175.67206668  .00004032  00000-0  28953-3 0  9992","MEAN_MOTION_DDOT":"0.0000000000000","REF_FRAME":"TEME","MEAN_MOTION":"15.06383997","RA_OF_ASC_NODE":"41.4934","TLE_LINE2":"2 47908  53.0546  41.4934 0001255  86.2109 273.9024 15.06383997126510","MEAN_MOTION_DOT":"0.00004032","CLASSIFICATION_TYPE":"U","RCS_SIZE":"LARGE","ARG_OF_PERICENTER":"86.2109","OBJECT_TYPE":"PAYLOAD","EPOCH":"2023-06-24T16:07:46.561152","PERIAPSIS":"546.393","MEAN_ELEMENT_THEORY":"SGP4","FILE":"3941772","GP_ID":"234528581","EPHEMERIS_TYPE":"0","SITE":"AFETR","CENTER_NAME":"EARTH","NORAD_CAT_ID":"47908","MEAN_ANOMALY":"273.9024","LAUNCH_DATE":"2021-03-14","REV_AT_EPOCH":"12651","OBJECT_ID":"2021-021BA","SEMIMAJOR_AXIS":"6925.398","OBJECT_NAME":"STARLINK-2368","ELEMENT_SET_NO":"999","PERIOD":"95.593","COUNTRY_CODE":"US","APOAPSIS":"548.132"},{"REF_FRAME":"TEME","ECCENTRICITY":"0.00009730","TLE_LINE1":"1 47909U 21021BB  23175.02425214  .00024707  00000-0  16697-2 0  9994","MEAN_MOTION_DDOT":"0.0000000000000","DECAY_DATE":null,"TIME_SYSTEM":"UTC","INCLINATION":"53.0546","BSTAR":"0.00166970000000","OBJECT_TYPE":"PAYLOAD","EPOCH":"2023-06-24T00:34:55.384896","PERIAPSIS":"546.400","MEAN_ELEMENT_THEORY":"SGP4","FILE":"3941434","RCS_SIZE":"LARGE","ARG_OF_PERICENTER":"89.7456","MEAN_MOTION_DOT":"0.00024707","CLASSIFICATION_TYPE":"U","MEAN_MOTION":"15.06445556","RA_OF_ASC_NODE":"34.3997","TLE_LINE2":"2 47909  53.0546  34.3997 0000973  89.7456 270.3645 15.06445556126554","LAUNCH_DATE":"2021-03-14","REV_AT_EPOCH":"12655","OBJECT_ID":"2021-021BB","MEAN_ANOMALY":"270.3645","EPHEMERIS_TYPE":"0","SITE":"AFETR","CENTER_NAME":"EARTH","NORAD_CAT_ID":"47909","GP_ID":"234520033","COUNTRY_CODE":"US","APOAPSIS":"547.748","ELEMENT_SET_NO":"999","PERIOD":"95.589","OBJECT_NAME":"STARLINK-2369","SEMIMAJOR_AXIS":"6925.209"},{"ELEMENT_SET_NO":"999","PERIOD":"95.592","COUNTRY_CODE":"US","APOAPSIS":"548.347","SEMIMAJOR_AXIS":"6925.323","OBJECT_NAME":"STARLINK-2370","MEAN_ANOMALY":"281.0011","LAUNCH_DATE":"2021-03-14","REV_AT_EPOCH":"12660","OBJECT_ID":"2021-021BC","GP_ID":"234520662","EPHEMERIS_TYPE":"0","NORAD_CAT_ID":"47910","CENTER_NAME":"EARTH","SITE":"AFETR","RCS_SIZE":"LARGE","ARG_OF_PERICENTER":"79.1166","OBJECT_TYPE":"PAYLOAD","FILE":"3941445","MEAN_ELEMENT_THEORY":"SGP4","PERIAPSIS":"546.030","EPOCH":"2023-06-24T07:48:49.267872","MEAN_MOTION":"15.06408215","TLE_LINE2":"2 47910  53.0544  33.0488 0001673  79.1166 281.0011 15.06408215126607","RA_OF_ASC_NODE":"33.0488","MEAN_MOTION_DOT":"0.00002706","CLASSIFICATION_TYPE":"U","REF_FRAME":"TEME","TIME_SYSTEM":"UTC","DECAY_DATE":null,"BSTAR":"0.00020043000000","INCLINATION":"53.0544","ECCENTRICITY":"0.00016730","MEAN_MOTION_DDOT":"0.0000000000000","TLE_LINE1":"1 47910U 21021BC  23175.32557023  .00002706  00000-0  20043-3 0  9999"},{"APOAPSIS":"548.729","COUNTRY_CODE":"US","ELEMENT_SET_NO":"999","PERIOD":"95.593","OBJECT_NAME":"STARLINK-2371","SEMIMAJOR_AXIS":"6925.367","OBJECT_ID":"2021-021BD","LAUNCH_DATE":"2021-03-14","REV_AT_EPOCH":"12675","MEAN_ANOMALY":"253.9844","NORAD_CAT_ID":"47911","CENTER_NAME":"EARTH","SITE":"AFETR","EPHEMERIS_TYPE":"0","GP_ID":"234526856","MEAN_ELEMENT_THEORY":"SGP4","FILE":"3941698","PERIAPSIS":"545.736","EPOCH":"2023-06-24T16:09:48.777408","OBJECT_TYPE":"PAYLOAD","ARG_OF_PERICENTER":"106.1383","RCS_SIZE":"LARGE","CLASSIFICATION_TYPE":"U","MEAN_MOTION_DOT":"0.00006076","TLE_LINE2":"2 47911  53.0556  46.7335 0002161 106.1383 253.9844 15.06393906126756","RA_OF_ASC_NODE":"46.7335","MEAN_MOTION":"15.06393906","REF_FRAME":"TEME","TLE_LINE1":"1 47911U 21021BD  23175.67348122  .00006076  00000-0  42655-3 0  9993","MEAN_MOTION_DDOT":"0.0000000000000","ECCENTRICITY":"0.00021610","BSTAR":"0.00042655000000","INCLINATION":"53.0556","TIME_SYSTEM":"UTC","DECAY_DATE":null},{"EPHEMERIS_TYPE":"0","NORAD_CAT_ID":"47912","CENTER_NAME":"EARTH","SITE":"AFETR","GP_ID":"234519839","REV_AT_EPOCH":"12658","LAUNCH_DATE":"2021-03-14","OBJECT_ID":"2021-021BE","MEAN_ANOMALY":"282.7847","OBJECT_NAME":"STARLINK-2372","SEMIMAJOR_AXIS":"6925.307","COUNTRY_CODE":"US","APOAPSIS":"548.168","ELEMENT_SET_NO":"999","PERIOD":"95.591","ECCENTRICITY":"0.00014380","MEAN_MOTION_DDOT":"0.0000000000000","TLE_LINE1":"1 47912U 21021BE  23175.31818815  .00006899  00000-0  48145-3 0  9999","TIME_SYSTEM":"UTC","DECAY_DATE":null,"INCLINATION":"53.0544","BSTAR":"0.00048145000000","REF_FRAME":"TEME","MEAN_MOTION_DOT":"0.00006899","CLASSIFICATION_TYPE":"U","MEAN_MOTION":"15.06413521","TLE_LINE2":"2 47912  53.0544  33.0657 0001438  77.3302 282.7847 15.06413521126586","RA_OF_ASC_NODE":"33.0657","OBJECT_TYPE":"PAYLOAD","MEAN_ELEMENT_THEORY":"SGP4","FILE":"3941427","EPOCH":"2023-06-24T07:38:11.456160","PERIAPSIS":"546.176","RCS_SIZE":"LARGE","ARG_OF_PERICENTER":"77.3302"},{"ECCENTRICITY":"0.00012900","TLE_LINE1":"1 47913U 21021BF  23175.65738359  .00004959  00000-0  35172-3 0  9992","MEAN_MOTION_DDOT":"0.0000000000000","TIME_SYSTEM":"UTC","DECAY_DATE":null,"INCLINATION":"53.0552","BSTAR":"0.00035172000000","REF_FRAME":"TEME","MEAN_MOTION_DOT":"0.00004959","CLASSIFICATION_TYPE":"U","MEAN_MOTION":"15.06384356","TLE_LINE2":"2 47913  53.0552  42.0305 0001290  87.1432 272.9705 15.06384356126492","RA_OF_ASC_NODE":"42.0305","OBJECT_TYPE":"PAYLOAD","FILE":"3941698","MEAN_ELEMENT_THEORY":"SGP4","PERIAPSIS":"546.368","EPOCH":"2023-06-24T15:46:37.942176","RCS_SIZE":"LARGE","ARG_OF_PERICENTER":"87.1432","EPHEMERIS_TYPE":"0","NORAD_CAT_ID":"47913","CENTER_NAME":"EARTH","SITE":"AFETR","GP_ID":"234526677","REV_AT_EPOCH":"12649","LAUNCH_DATE":"2021-03-14","OBJECT_ID":"2021-021BF","MEAN_ANOMALY":"272.9705","OBJECT_NAME":"STARLINK-2374","SEMIMAJOR_AXIS":"6925.397","COUNTRY_CODE":"US","APOAPSIS":"548.155","PERIOD":"95.593","ELEMENT_SET_NO":"999"}];
